ONEWEB-0283             
1 49001U 21060AL  24364.90271930  .00000172  00000+0  41539-3 0  9997
2 49001  87.9094 335.2430 0001539  79.3840 280.7464 13.16596873170639
ONEWEB-0284             
1 49002U 21060AM  24365.20037746 -.00000029  00000+0 -11048-3 0  9992
2 49002  87.9087 335.1559 0001862  90.0503 270.0841 13.16594714169336
ONEWEB-0285             
1 49075U 21075A   24365.55260048  .00000044  00000+0  86156-4 0  9997
2 49075  87.8885  96.9231 0001710 106.9024 253.2292 13.12443545165214
ONEWEB-0286             
1 49076U 21075B   24365.52407309 -.00000334  00000+0 -96340-3 0  9997
2 49076  87.8881  96.9254 0001933 101.2207 258.9139 13.12441328164560
ONEWEB-0287             
1 49077U 21075C   24365.56318393  .00000075  00000+0  15948-3 0  9991
2 49077  87.9105 112.1742 0001829 106.3764 253.7569 13.17648847163358
ONEWEB-0288             
1 49078U 21075D   24365.51029737 -.00000149  00000+0 -45042-3 0  9990
2 49078  87.8881  96.9309 0001806 109.1748 250.9576 13.12444272166176
ONEWEB-0289             
1 49079U 21075E   24365.59188121  .00000129  00000+0  29925-3 0  9990
2 49079  87.9108 112.1984 0001572 104.5540 255.5766 13.17648713163933
ONEWEB-0290             
1 49080U 21075F   24365.04345200  .00000005  00000+0 -20191-4 0  9996
2 49080  87.9104 112.2658 0001615 130.8812 229.2460 13.17649169163274
